OBJECT_NAME,OBJECT_ID,EPOCH,MEAN_MOTION,ECCENTRICITY,INCLINATION,RA_OF_ASC_NODE,ARG_OF_PERICENTER,MEAN_ANOMALY,EPHEMERIS_TYPE,CLASSIFICATION_TYPE,NORAD_CAT_ID,ELEMENT_SET_NO,REV_AT_EPOCH,BSTAR,MEAN_MOTION_DOT,MEAN_MOTION_DDOT
STARLINK-37321,2026-114S,2026-06-08T12:00:02.000160,15.80878792,.0001215,53.1590,245.6523,85.9623,133.9348,0,U,69198,999,341,.11583E-3,.22227E-3,0
STARLINK-37406,2026-114T,2026-06-08T12:00:02.000160,15.80871801,.0001109,53.1585,245.6432,83.3038,140.8660,0,U,69199,999,341,.12123E-3,.23291E-3,0
STARLINK-37761,2026-114U,2026-06-08T12:00:02.000160,15.80885682,.0001111,53.1586,245.6338,85.9451,142.4935,0,U,69200,999,341,-.76313E-5,-.2206E-4,0
STARLINK-37754,2026-114V,2026-06-08T12:00:02.000160,15.80862238,.0001129,53.1585,245.6230,69.0509,164.7669,0,U,69201,999,341,.2448E-3,.47861E-3,0
STARLINK-37649,2026-114W,2026-06-08T12:00:02.000160,15.80844938,.0000987,53.1585,245.6169,77.9294,159.0609,0,U,69202,999,341,.44876E-3,.88669E-3,0
STARLINK-37604,2026-114X,2026-06-08T12:00:02.000160,15.80855988,.0000869,53.1585,245.6080,73.8416,167.4163,0,U,69203,999,341,.36079E-3,.7104E-3,0
STARLINK-37669,2026-114Y,2026-06-08T12:00:02.000160,15.80854410,.0001134,53.1587,245.5988,75.0300,170.5008,0,U,69204,999,341,.36975E-3,.72832E-3,0
STARLINK-37691,2026-114Z,2026-06-08T12:00:02.000160,15.78060739,.0000855,53.1589,245.5857,71.3686,180.1441,0,U,69205,999,341,-.34136E-3,-.5954E-3,0
STARLINK-37671,2026-114AA,2026-06-08T12:00:02.000160,15.80856095,.0001156,53.1584,245.5808,71.7904,182.2850,0,U,69206,999,341,.33481E-3,.65835E-3,0
STARLINK-37647,2026-114AB,2026-06-08T12:00:02.000160,15.80854561,.0001011,53.1586,245.5898,87.4405,162.3647,0,U,69207,999,341,.31995E-3,.62856E-3,0
STARLINK-37562,2026-114AC,2026-06-08T12:00:02.000160,15.80860362,.0001068,53.1583,245.5627,73.6602,188.9568,0,U,69208,999,341,.27652E-3,.54187E-3,0
STARLINK-37682,2026-114AD,2026-06-08T12:00:02.000160,15.80897262,.0001044,53.1582,245.5538,85.6352,181.2458,0,U,69209,999,341,-.12102E-3,-.24543E-3,0
STARLINK-37402,2026-114AE,2026-06-08T12:00:02.000160,15.80853717,.0001137,53.1584,245.5451,75.9157,195.2477,0,U,69210,999,341,.34377E-3,.67622E-3,0
STARLINK-37613,2026-115A,2026-06-08T12:00:02.000160,15.70777158,.000133,97.2841,176.4644,102.7785,226.4962,0,U,69211,999,329,-.22833E-1,-.2476633E-1,0
STARLINK-37713,2026-115B,2026-06-08T11:57:11.734272,15.80878582,.0001503,97.2829,176.4817,143.2143,216.9229,0,U,69212,999,331,.11546E-2,.227536E-2,0
STARLINK-37716,2026-115C,2026-06-08T11:58:17.031072,15.80875829,.0001522,97.2835,176.4810,78.7444,281.3996,0,U,69213,999,331,.10479E-2,.205961E-2,0
STARLINK-37620,2026-115D,2026-06-08T12:00:02.000160,15.66527522,.0001357,97.2840,176.4541,111.7675,194.0694,0,U,69214,999,329,-.27491E-1,-.2498654E-1,0
STARLINK-37700,2026-115E,2026-06-08T12:00:02.000160,15.56006394,.0001773,97.2855,176.4038,78.7679,97.6257,0,U,69215,999,329,-.38844E-1,-.2365706E-1,0
STARLINK-37766,2026-115F,2026-06-08T10:22:47.874720,15.80864930,.000127,97.2830,176.4175,81.9504,278.1908,0,U,69216,999,330,.99172E-3,.194549E-2,0
STARLINK-37763,2026-115G,2026-06-08T11:53:02.537664,15.80911915,.0001465,97.2829,176.4856,54.6033,305.5372,0,U,69217,999,331,.13866E-2,.275218E-2,0
STARLINK-37724,2026-115H,2026-06-08T10:20:40.909920,15.80853364,.0001417,97.2836,176.4196,106.3932,253.7492,0,U,69218,999,330,.58662E-3,.113896E-2,0
STARLINK-37758,2026-115J,2026-06-08T11:47:12.535584,15.80896479,.0001213,97.2834,176.4919,147.0631,213.0713,0,U,69219,999,331,.10226E-2,.201055E-2,0
STARLINK-37201,2026-115K,2026-06-08T11:48:59.815872,15.80882376,.0001595,97.2841,176.4900,65.7348,294.4086,0,U,69220,999,331,.10012E-2,.196617E-2,0
STARLINK-37728,2026-115L,2026-06-08T11:45:30.813408,15.80871503,.0001779,97.2837,176.4935,40.2724,319.8676,0,U,69221,999,331,.12868E-2,.254299E-2,0
STARLINK-37760,2026-115M,2026-06-08T10:18:18.227232,15.80840878,.0001212,97.2838,176.4223,87.2504,272.8903,0,U,69222,999,330,.82717E-3,.161448E-2,0
STARLINK-37759,2026-115N,2026-06-08T10:13:19.060320,15.80850117,.0000855,97.2836,176.4267,94.5315,265.6051,0,U,69223,999,330,.85414E-3,.166892E-2,0
STARLINK-37725,2026-115P,2026-06-08T11:45:17.468928,15.80908455,.0001136,97.2836,176.4935,132.6228,227.5136,0,U,69224,999,331,.12432E-2,.245849E-2,0
STARLINK-37770,2026-115Q,2026-06-08T10:15:00.601920,15.80854481,.0001524,97.2840,176.4254,69.2097,290.9335,0,U,69225,999,330,.87834E-3,.171757E-2,0
STARLINK-37736,2026-115R,2026-06-08T08:42:58.423680,15.79893854,.0005587,97.2840,176.3594,102.7418,257.4474,0,U,69226,999,329,-.64009E-2,-.1045578E-1,0
STARLINK-37737,2026-115S,2026-06-08T10:11:06.476064,15.80866345,.0000955,97.2838,176.4285,100.4945,259.6431,0,U,69227,999,330,.7377E-3,.143845E-2,0
