STARLINK-37321          
1 69198U 26114S   26159.50002315  .00022227  00000+0  11583-3 0  9991
2 69198  53.1590 245.6523 0001215  85.9623 133.9348 15.80878792  3411
STARLINK-37406          
1 69199U 26114T   26159.50002315  .00023291  00000+0  12123-3 0  9995
2 69199  53.1585 245.6432 0001109  83.3038 140.8660 15.80871801  3417
STARLINK-37761          
1 69200U 26114U   26159.50002315 -.00002206  00000+0 -76313-5 0  9996
2 69200  53.1586 245.6338 0001111  85.9451 142.4935 15.80885682  3411
STARLINK-37754          
1 69201U 26114V   26159.50002315  .00047861  00000+0  24480-3 0  9997
2 69201  53.1585 245.6230 0001129  69.0509 164.7669 15.80862238  3411
STARLINK-37649          
1 69202U 26114W   26159.50002315  .00088669  00000+0  44876-3 0  9990
2 69202  53.1585 245.6169 0000987  77.9294 159.0609 15.80844938  3411
STARLINK-37604          
1 69203U 26114X   26159.50002315  .00071040  00000+0  36079-3 0  9992
2 69203  53.1585 245.6080 0000869  73.8416 167.4163 15.80855988  3419
STARLINK-37669          
1 69204U 26114Y   26159.50002315  .00072832  00000+0  36975-3 0  9998
2 69204  53.1587 245.5988 0001134  75.0300 170.5008 15.80854410  3412
STARLINK-37691          
1 69205U 26114Z   26159.50002315 -.00059540  00000+0 -34136-3 0  9999
2 69205  53.1589 245.5857 0000855  71.3686 180.1441 15.78060739  3413
STARLINK-37671          
1 69206U 26114AA  26159.50002315  .00065835  00000+0  33481-3 0  9994
2 69206  53.1584 245.5808 0001156  71.7904 182.2850 15.80856095  3415
STARLINK-37647          
1 69207U 26114AB  26159.50002315  .00062856  00000+0  31995-3 0  9993
2 69207  53.1586 245.5898 0001011  87.4405 162.3647 15.80854561  3416
STARLINK-37562          
1 69208U 26114AC  26159.50002315  .00054187  00000+0  27652-3 0  9997
2 69208  53.1583 245.5627 0001068  73.6602 188.9568 15.80860362  3414
STARLINK-37682          
1 69209U 26114AD  26159.50002315 -.00024543  00000+0 -12102-3 0  9997
2 69209  53.1582 245.5538 0001044  85.6352 181.2458 15.80897262  3417
STARLINK-37402          
1 69210U 26114AE  26159.50002315  .00067622  00000+0  34377-3 0  9990
2 69210  53.1584 245.5451 0001137  75.9157 195.2477 15.80853717  3416
STARLINK-37613          
1 69211U 26115A   26159.50002315 -.02476633  00000+0 -22833-1 0  9994
2 69211  97.2841 176.4644 0001330 102.7785 226.4962 15.70777158  3294
STARLINK-37713          
1 69212U 26115B   26159.49805248  .00227536  00000+0  11546-2 0  9991
2 69212  97.2829 176.4817 0001503 143.2143 216.9229 15.80878582  3310
STARLINK-37716          
1 69213U 26115C   26159.49880823  .00205961  00000+0  10479-2 0  9996
2 69213  97.2835 176.4810 0001522  78.7444 281.3996 15.80875829  3316
STARLINK-37620          
1 69214U 26115D   26159.50002315 -.02498654  00000+0 -27491-1 0  9999
2 69214  97.2840 176.4541 0001357 111.7675 194.0694 15.66527522  3294
STARLINK-37700          
1 69215U 26115E   26159.50002315 -.02365706  00000+0 -38844-1 0  9995
2 69215  97.2855 176.4038 0001773  78.7679  97.6257 15.56006394  3291
STARLINK-37766          
1 69216U 26115F   26159.43249855  .00194549  00000+0  99172-3 0  9994
2 69216  97.2830 176.4175 0001270  81.9504 278.1908 15.80864930  3308
STARLINK-37763          
1 69217U 26115G   26159.49516826  .00275218  00000+0  13866-2 0  9994
2 69217  97.2829 176.4856 0001465  54.6033 305.5372 15.80911915  3310
STARLINK-37724          
1 69218U 26115H   26159.43102905  .00113896  00000+0  58662-3 0  9995
2 69218  97.2836 176.4196 0001417 106.3932 253.7492 15.80853364  3305
STARLINK-37758          
1 69219U 26115J   26159.49111731  .00201055  00000+0  10226-2 0  9997
2 69219  97.2834 176.4919 0001213 147.0631 213.0713 15.80896479  3319
STARLINK-37201          
1 69220U 26115K   26159.49235898  .00196617  00000+0  10012-2 0  9990
2 69220  97.2841 176.4900 0001595  65.7348 294.4086 15.80882376  3310
STARLINK-37728          
1 69221U 26115L   26159.48993997  .00254299  00000+0  12868-2 0  9993
2 69221  97.2837 176.4935 0001779  40.2724 319.8676 15.80871503  3311
STARLINK-37760          
1 69222U 26115M   26159.42937763  .00161448  00000+0  82717-3 0  9991
2 69222  97.2838 176.4223 0001212  87.2504 272.8903 15.80840878  3303
STARLINK-37759          
1 69223U 26115N   26159.42591505  .00166892  00000+0  85414-3 0  9997
2 69223  97.2836 176.4267 0000855  94.5315 265.6051 15.80850117  3304
STARLINK-37725          
1 69224U 26115P   26159.48978552  .00245849  00000+0  12432-2 0  9994
2 69224  97.2836 176.4935 0001136 132.6228 227.5136 15.80908455  3318
STARLINK-37770          
1 69225U 26115Q   26159.42709030  .00171757  00000+0  87834-3 0  9997
2 69225  97.2840 176.4254 0001524  69.2097 290.9335 15.80854481  3301
STARLINK-37736          
1 69226U 26115R   26159.36317620 -.01045578  00000+0 -64009-2 0  9993
2 69226  97.2840 176.3594 0005587 102.7418 257.4474 15.79893854  3296
STARLINK-37737          
1 69227U 26115S   26159.42438051  .00143845  00000+0  73770-3 0  9992
2 69227  97.2838 176.4285 0000955 100.4945 259.6431 15.80866345  3302
